[{"OBJECT_NAME":"STARLINK-4362","OBJECT_ID":"2022-077A","EPOCH":"2026-03-09T23:25:33.150432","MEAN_MOTION":15.01261785,"ECCENTRICITY":0.00026308,"INCLINATION":97.6021,"RA_OF_ASC_NODE":250.5038,"ARG_OF_PERICENTER":62.7524,"MEAN_ANOMALY":297.3968,"EPHEMERIS_TYPE":0,"CLASSIFICATION_TYPE":"U","NORAD_CAT_ID":53043,"ELEMENT_SET_NO":999,"REV_AT_EPOCH":20096,"BSTAR":3.1779954e-5,"MEAN_MOTION_DOT":3.5e-6,"MEAN_MOTION_DDOT":0},{"OBJECT_NAME":"COSMOS 2251 DEB","OBJECT_ID":"1993-036AZN","EPOCH":"2026-03-08T04:55:11.679456","MEAN_MOTION":14.74823481,"ECCENTRICITY":0.01364476,"INCLINATION":73.9716,"RA_OF_ASC_NODE":347.1087,"ARG_OF_PERICENTER":142.1945,"MEAN_ANOMALY":218.8911,"EPHEMERIS_TYPE":0,"CLASSIFICATION_TYPE":"U","NORAD_CAT_ID":36385,"ELEMENT_SET_NO":999,"REV_AT_EPOCH":86361,"BSTAR":0.002162243,"MEAN_MOTION_DOT":0.00016854,"MEAN_MOTION_DDOT":0}]
